O3B FM10                
1 40348U 14083A   26065.41555366 -.00000026  00000+0  00000+0 0  9996
2 40348   0.0432 347.6769 0002684 356.1142  16.1950  5.00115244204756
O3B FM11                
1 40349U 14083B   26065.42827486 -.00000026  00000+0  00000+0 0  9993
2 40349   0.0568   0.4452 0003126 333.7457  25.7882  5.00115618204779
O3B FM12                
1 40350U 14083C   26062.45701119 -.00000028  00000+0  00000+0 0  9991
2 40350   0.0560 359.7796 0002643 337.6957  22.5061  5.00115945204637
O3B FM9                 
1 40351U 14083D   26065.28230790 -.00000026  00000+0  00000+0 0  9996
2 40351   0.0579   0.7111 0002732 343.1272  16.1476  5.00115923204920
ASTRA 2G                
1 40364U 14089A   26065.58710912  .00000146  00000+0  00000+0 0  9990
2 40364   0.0608 344.1773 0004471  46.7275  12.9272  1.00273280 40931
SES-9                   
1 41380U 16013A   26063.33003138 -.00000357  00000+0  00000+0 0  9999
2 41380   0.0427 307.7822 0001514  86.5529 354.8377  1.00271983 36384
SES-10                  
1 42432U 17017A   26063.34003264 -.00000284  00000+0  00000+0 0  9993
2 42432   0.0212  73.6872 0002699 276.1470 227.7463  1.00269378 32707
SES-15                  
1 42709U 17026A   26064.01780892  .00000050  00000+0  00000+0 0  9994
2 42709   0.0426 307.9199 0000713  39.5952  52.4724  1.00271060  6386
SES-11 (ECHOSTAR 105)   
1 42967U 17063A   26065.56076233 -.00000093  00000+0  00000+0 0  9997
2 42967   0.0264  64.3194 0002667 279.3437 277.5470  1.00273017 30696
SES-14                  
1 43175U 18012B   26064.85905593 -.00000285  00000+0  00000+0 0  9998
2 43175   0.0147  70.1946 0000941 282.6586  72.4822  1.00271895  5982
O3B FM15                
1 43231U 18024A   26065.34907129 -.00000026  00000+0  00000+0 0  9999
2 43231   0.0486   0.8743 0002689 340.1748  18.9355  5.00115720145885
O3B FM16                
1 43232U 18024B   26065.20155549 -.00000026  00000+0  00000+0 0  9996
2 43232   0.0450   2.8168 0002827 339.2721  17.8957  5.00115882145799
O3B FM14                
1 43233U 18024C   26065.44220010 -.00000026  00000+0  00000+0 0  9999
2 43233   0.0435   1.7685 0002846 344.1171  14.1012  5.00115673145802
O3B FM13                
1 43234U 18024D   26062.10991137 -.00000028  00000+0  00000+0 0  9997
2 43234   0.0485 331.6373 0004295 331.6147  56.6997  5.00115687145742
SES-12                  
1 43488U 18049A   26065.81435012 -.00000272  00000+0  00000+0 0  9992
2 43488   0.0187  99.2758 0001914 204.8364 248.5693  1.00271777 28398
O3B FM20                
1 44112U 19020A   26065.26833099 -.00000026  00000+0  00000+0 0  9990
2 44112   0.0518 359.6916 0002799 333.6749  26.6137  5.00115505126421
O3B FM19                
1 44113U 19020B   26058.89895873 -.00000027  00000+0  00000+0 0  9991
2 44113   0.0602 347.5601 0004795 353.9797  18.4356  5.00116325125971
