[{"OBJECT_NAME":"O3B FM10","OBJECT_ID":"2014-083A","EPOCH":"2026-03-06T09:58:23.836224","MEAN_MOTION":5.00115244,"ECCENTRICITY":0.00026845,"INCLINATION":0.0432,"RA_OF_ASC_NODE":347.6769,"ARG_OF_PERICENTER":356.1142,"MEAN_ANOMALY":16.195,"EPHEMERIS_TYPE":0,"CLASSIFICATION_TYPE":"U","NORAD_CAT_ID":40348,"ELEMENT_SET_NO":999,"REV_AT_EPOCH":20475,"BSTAR":0,"MEAN_MOTION_DOT":-2.6e-7,"MEAN_MOTION_DDOT":0},{"OBJECT_NAME":"O3B FM11","OBJECT_ID":"2014-083B","EPOCH":"2026-03-06T10:16:42.947904","MEAN_MOTION":5.00115618,"ECCENTRICITY":0.00031268,"INCLINATION":0.0568,"RA_OF_ASC_NODE":0.4452,"ARG_OF_PERICENTER":333.7457,"MEAN_ANOMALY":25.7882,"EPHEMERIS_TYPE":0,"CLASSIFICATION_TYPE":"U","NORAD_CAT_ID":40349,"ELEMENT_SET_NO":999,"REV_AT_EPOCH":20477,"BSTAR":0,"MEAN_MOTION_DOT":-2.6e-7,"MEAN_MOTION_DDOT":0},{"OBJECT_NAME":"O3B FM12","OBJECT_ID":"2014-083C","EPOCH":"2026-03-03T10:58:05.766816","MEAN_MOTION":5.00115945,"ECCENTRICITY":0.00026432,"INCLINATION":0.056,"RA_OF_ASC_NODE":359.7796,"ARG_OF_PERICENTER":337.6957,"MEAN_ANOMALY":22.5061,"EPHEMERIS_TYPE":0,"CLASSIFICATION_TYPE":"U","NORAD_CAT_ID":40350,"ELEMENT_SET_NO":999,"REV_AT_EPOCH":20463,"BSTAR":0,"MEAN_MOTION_DOT":-2.8e-7,"MEAN_MOTION_DDOT":0},{"OBJECT_NAME":"O3B FM9","OBJECT_ID":"2014-083D","EPOCH":"2026-03-06T06:46:31.402560","MEAN_MOTION":5.00115923,"ECCENTRICITY":0.00027326,"INCLINATION":0.0579,"RA_OF_ASC_NODE":0.7111,"ARG_OF_PERICENTER":343.1272,"MEAN_ANOMALY":16.1476,"EPHEMERIS_TYPE":0,"CLASSIFICATION_TYPE":"U","NORAD_CAT_ID":40351,"ELEMENT_SET_NO":999,"REV_AT_EPOCH":20492,"BSTAR":0,"MEAN_MOTION_DOT":-2.6e-7,"MEAN_MOTION_DDOT":0},{"OBJECT_NAME":"ASTRA 2G","OBJECT_ID":"2014-089A","EPOCH":"2026-03-06T14:05:26.227968","MEAN_MOTION":1.0027328,"ECCENTRICITY":0.00044719,"INCLINATION":0.0608,"RA_OF_ASC_NODE":344.1773,"ARG_OF_PERICENTER":46.7275,"MEAN_ANOMALY":12.9272,"EPHEMERIS_TYPE":0,"CLASSIFICATION_TYPE":"U","NORAD_CAT_ID":40364,"ELEMENT_SET_NO":999,"REV_AT_EPOCH":4093,"BSTAR":0,"MEAN_MOTION_DOT":1.46e-6,"MEAN_MOTION_DDOT":0},{"OBJECT_NAME":"SES-9","OBJECT_ID":"2016-013A","EPOCH":"2026-03-04T07:55:14.711232","MEAN_MOTION":1.00271983,"ECCENTRICITY":0.00015147,"INCLINATION":0.0427,"RA_OF_ASC_NODE":307.7822,"ARG_OF_PERICENTER":86.5529,"MEAN_ANOMALY":354.8377,"EPHEMERIS_TYPE":0,"CLASSIFICATION_TYPE":"U","NORAD_CAT_ID":41380,"ELEMENT_SET_NO":999,"REV_AT_EPOCH":3638,"BSTAR":0,"MEAN_MOTION_DOT":-3.57e-6,"MEAN_MOTION_DDOT":0},{"OBJECT_NAME":"SES-10","OBJECT_ID":"2017-017A","EPOCH":"2026-03-04T08:09:38.820096","MEAN_MOTION":1.00269378,"ECCENTRICITY":0.00026994,"INCLINATION":0.0212,"RA_OF_ASC_NODE":73.6872,"ARG_OF_PERICENTER":276.147,"MEAN_ANOMALY":227.7463,"EPHEMERIS_TYPE":0,"CLASSIFICATION_TYPE":"U","NORAD_CAT_ID":42432,"ELEMENT_SET_NO":999,"REV_AT_EPOCH":3270,"BSTAR":0,"MEAN_MOTION_DOT":-2.84e-6,"MEAN_MOTION_DDOT":0},{"OBJECT_NAME":"SES-15","OBJECT_ID":"2017-026A","EPOCH":"2026-03-05T00:25:38.690688","MEAN_MOTION":1.0027106,"ECCENTRICITY":7.138e-5,"INCLINATION":0.0426,"RA_OF_ASC_NODE":307.9199,"ARG_OF_PERICENTER":39.5952,"MEAN_ANOMALY":52.4724,"EPHEMERIS_TYPE":0,"CLASSIFICATION_TYPE":"U","NORAD_CAT_ID":42709,"ELEMENT_SET_NO":999,"REV_AT_EPOCH":638,"BSTAR":0,"MEAN_MOTION_DOT":5.0e-7,"MEAN_MOTION_DDOT":0},{"OBJECT_NAME":"SES-11 (ECHOSTAR 105)","OBJECT_ID":"2017-063A","EPOCH":"2026-03-06T13:27:29.865312","MEAN_MOTION":1.00273017,"ECCENTRICITY":0.00026674,"INCLINATION":0.0264,"RA_OF_ASC_NODE":64.3194,"ARG_OF_PERICENTER":279.3437,"MEAN_ANOMALY":277.547,"EPHEMERIS_TYPE":0,"CLASSIFICATION_TYPE":"U","NORAD_CAT_ID":42967,"ELEMENT_SET_NO":999,"REV_AT_EPOCH":3069,"BSTAR":0,"MEAN_MOTION_DOT":-9.3e-7,"MEAN_MOTION_DDOT":0},{"OBJECT_NAME":"SES-14","OBJECT_ID":"2018-012B","EPOCH":"2026-03-05T20:37:02.432352","MEAN_MOTION":1.00271895,"ECCENTRICITY":9.413e-5,"INCLINATION":0.0147,"RA_OF_ASC_NODE":70.1946,"ARG_OF_PERICENTER":282.6586,"MEAN_ANOMALY":72.4822,"EPHEMERIS_TYPE":0,"CLASSIFICATION_TYPE":"U","NORAD_CAT_ID":43175,"ELEMENT_SET_NO":999,"REV_AT_EPOCH":598,"BSTAR":0,"MEAN_MOTION_DOT":-2.85e-6,"MEAN_MOTION_DDOT":0},{"OBJECT_NAME":"O3B FM15","OBJECT_ID":"2018-024A","EPOCH":"2026-03-06T08:22:39.759456","MEAN_MOTION":5.0011572,"ECCENTRICITY":0.0002689,"INCLINATION":0.0486,"RA_OF_ASC_NODE":0.8743,"ARG_OF_PERICENTER":340.1748,"MEAN_ANOMALY":18.9355,"EPHEMERIS_TYPE":0,"CLASSIFICATION_TYPE":"U","NORAD_CAT_ID":43231,"ELEMENT_SET_NO":999,"REV_AT_EPOCH":14588,"BSTAR":0,"MEAN_MOTION_DOT":-2.6e-7,"MEAN_MOTION_DDOT":0},{"OBJECT_NAME":"O3B FM16","OBJECT_ID":"2018-024B","EPOCH":"2026-03-06T04:50:14.394336","MEAN_MOTION":5.00115882,"ECCENTRICITY":0.00028278,"INCLINATION":0.045,"RA_OF_ASC_NODE":2.8168,"ARG_OF_PERICENTER":339.2721,"MEAN_ANOMALY":17.8957,"EPHEMERIS_TYPE":0,"CLASSIFICATION_TYPE":"U","NORAD_CAT_ID":43232,"ELEMENT_SET_NO":999,"REV_AT_EPOCH":14579,"BSTAR":0,"MEAN_MOTION_DOT":-2.6e-7,"MEAN_MOTION_DDOT":0},{"OBJECT_NAME":"O3B FM14","OBJECT_ID":"2018-024C","EPOCH":"2026-03-06T10:36:46.088640","MEAN_MOTION":5.00115673,"ECCENTRICITY":0.0002846,"INCLINATION":0.0435,"RA_OF_ASC_NODE":1.7685,"ARG_OF_PERICENTER":344.1171,"MEAN_ANOMALY":14.1012,"EPHEMERIS_TYPE":0,"CLASSIFICATION_TYPE":"U","NORAD_CAT_ID":43233,"ELEMENT_SET_NO":999,"REV_AT_EPOCH":14580,"BSTAR":0,"MEAN_MOTION_DOT":-2.6e-7,"MEAN_MOTION_DDOT":0},{"OBJECT_NAME":"O3B FM13","OBJECT_ID":"2018-024D","EPOCH":"2026-03-03T02:38:16.342368","MEAN_MOTION":5.00115687,"ECCENTRICITY":0.00042952,"INCLINATION":0.0485,"RA_OF_ASC_NODE":331.6373,"ARG_OF_PERICENTER":331.6147,"MEAN_ANOMALY":56.6997,"EPHEMERIS_TYPE":0,"CLASSIFICATION_TYPE":"U","NORAD_CAT_ID":43234,"ELEMENT_SET_NO":999,"REV_AT_EPOCH":14574,"BSTAR":0,"MEAN_MOTION_DOT":-2.8e-7,"MEAN_MOTION_DDOT":0},{"OBJECT_NAME":"SES-12","OBJECT_ID":"2018-049A","EPOCH":"2026-03-06T19:32:39.850368","MEAN_MOTION":1.00271777,"ECCENTRICITY":0.0001914,"INCLINATION":0.0187,"RA_OF_ASC_NODE":99.2758,"ARG_OF_PERICENTER":204.8364,"MEAN_ANOMALY":248.5693,"EPHEMERIS_TYPE":0,"CLASSIFICATION_TYPE":"U","NORAD_CAT_ID":43488,"ELEMENT_SET_NO":999,"REV_AT_EPOCH":2839,"BSTAR":0,"MEAN_MOTION_DOT":-2.72e-6,"MEAN_MOTION_DDOT":0},{"OBJECT_NAME":"O3B FM20","OBJECT_ID":"2019-020A","EPOCH":"2026-03-06T06:26:23.797536","MEAN_MOTION":5.00115505,"ECCENTRICITY":0.00027999,"INCLINATION":0.0518,"RA_OF_ASC_NODE":359.6916,"ARG_OF_PERICENTER":333.6749,"MEAN_ANOMALY":26.6137,"EPHEMERIS_TYPE":0,"CLASSIFICATION_TYPE":"U","NORAD_CAT_ID":44112,"ELEMENT_SET_NO":999,"REV_AT_EPOCH":12642,"BSTAR":0,"MEAN_MOTION_DOT":-2.6e-7,"MEAN_MOTION_DDOT":0},{"OBJECT_NAME":"O3B FM19","OBJECT_ID":"2019-020B","EPOCH":"2026-02-27T21:34:30.034272","MEAN_MOTION":5.00116325,"ECCENTRICITY":0.0004795,"INCLINATION":0.0602,"RA_OF_ASC_NODE":347.5601,"ARG_OF_PERICENTER":353.9797,"MEAN_ANOMALY":18.4356,"EPHEMERIS_TYPE":0,"CLASSIFICATION_TYPE":"U","NORAD_CAT_ID":44113,"ELEMENT_SET_NO":999,"REV_AT_EPOCH":12597,"BSTAR":0,"MEAN_MOTION_DOT":-2.7e-7,"MEAN_MOTION_DDOT":0}]
